O3B MPOWER F1           
1 54755U 22174A   24263.99193096 -.00000020  00000+0  00000+0 0  9996
2 54755   0.0544 345.6612 0006567 186.3072  11.4294  5.00113577 33588
